[
  {
    "name": "STARLINK-34483",
    "noradId": "64367",
    "line1": "1 64367U 25126Z   26181.23920307 -.00000025  00000+0  56988-5 0  9994",
    "line2": "2 64367  70.0010 110.5555 0002781 257.4099 102.6750 14.98342150 57541"
  },
  {
    "name": "STARLINK-34457",
    "noradId": "64368",
    "line1": "1 64368U 25126AA  26181.81069112  .00006326  00000+0  53728-3 0  9993",
    "line2": "2 64368  70.0015 109.3426 0003024 265.6639  94.4174 14.98343529 57620"
  },
  {
    "name": "STARLINK-34444",
    "noradId": "64369",
    "line1": "1 64369U 25126AB  26181.21418352  .00008444  00000+0  71431-3 0  9996",
    "line2": "2 64369  70.0011 110.8707 0002683 268.4680  91.6172 14.98347708 57533"
  },
  {
    "name": "STARLINK-11732 [DTC]",
    "noradId": "64370",
    "line1": "1 64370U 25127A   26181.30795135  .00208767  00000+0  15850-2 0  9998",
    "line2": "2 64370  43.0015 125.7731 0002732 268.8970  91.1585 15.70911929 61218"
  },
  {
    "name": "STARLINK-11731 [DTC]",
    "noradId": "64371",
    "line1": "1 64371U 25127B   26181.83254470  .00257165  00000+0  19422-2 0  9994",
    "line2": "2 64371  43.0008 122.8349 0001602 259.4258 100.6429 15.70889631 61299"
  },
  {
    "name": "STARLINK-11746 [DTC]",
    "noradId": "64372",
    "line1": "1 64372U 25127C   26180.97410794  .00164304  00000+0  12582-2 0  9994",
    "line2": "2 64372  42.9986 127.5569 0002064 205.3972 154.6795 15.70850450 61163"
  },
  {
    "name": "STARLINK-11748 [DTC]",
    "noradId": "64373",
    "line1": "1 64373U 25127D   26181.84407360  .00182462  00000+0  13874-2 0  9997",
    "line2": "2 64373  43.0004 122.9258 0003765 283.4747  76.5701 15.70955639 61295"
  },
  {
    "name": "STARLINK-11739 [DTC]",
    "noradId": "64374",
    "line1": "1 64374U 25127E   26181.14893266  .00175619  00000+0  13386-2 0  9999",
    "line2": "2 64374  43.0004 126.2804 0000709 213.2987 146.7836 15.70925477 61197"
  },
  {
    "name": "STARLINK-11738 [DTC]",
    "noradId": "64375",
    "line1": "1 64375U 25127F   26181.84316271  .00238705  00000+0  17997-2 0  9991",
    "line2": "2 64375  42.9994 122.9177 0002553 282.7158  77.3424 15.70986759 61293"
  },
  {
    "name": "STARLINK-11745 [DTC]",
    "noradId": "64376",
    "line1": "1 64376U 25127G   26181.30262005  .00243272  00000+0  18352-2 0  9999",
    "line2": "2 64376  43.0014 125.7275 0003022 271.6906  88.3615 15.70958186 61218"
  },
  {
    "name": "STARLINK-11742 [DTC]",
    "noradId": "64377",
    "line1": "1 64377U 25127H   26181.12782291  .00142547  00000+0  10950-2 0  9993",
    "line2": "2 64377  42.9994 127.0037 0000870 270.2578  89.8190 15.70849953 61184"
  },
  {
    "name": "STARLINK-11711 [DTC]",
    "noradId": "64378",
    "line1": "1 64378U 25127J   26180.90521586  .00189750  00000+0  14460-2 0  9994",
    "line2": "2 64378  42.9987 127.8961 0001283 211.0436 149.0356 15.70885331 61268"
  },
  {
    "name": "STARLINK-11743 [DTC]",
    "noradId": "64379",
    "line1": "1 64379U 25127K   26181.13844144  .00079533  00000+0  61706-3 0  9992",
    "line2": "2 64379  43.0017 127.0896 0002232 273.6697  86.3915 15.70851642 61185"
  },
  {
    "name": "STARLINK-11744 [DTC]",
    "noradId": "64380",
    "line1": "1 64380U 25127L   26181.82192459  .00275527  00000+0  20648-2 0  9995",
    "line2": "2 64380  43.0001 122.7441 0003165 279.4169  80.6341 15.71016830 61297"
  },
  {
    "name": "STARLINK-11692 [DTC]",
    "noradId": "64381",
    "line1": "1 64381U 25127M   26181.29733486  .00187337  00000+0  14286-2 0  9990",
    "line2": "2 64381  43.0001 125.6810 0001747 257.2248 102.8424 15.70876045 61320"
  },
  {
    "name": "STARLINK-11740 [DTC]",
    "noradId": "64382",
    "line1": "1 64382U 25127N   26181.83335647  .00014349  00000+0  11519-3 0  9997",
    "line2": "2 64382  43.0005 122.2274 0001625 253.4227 351.7298 15.70826448  6024"
  },
  {
    "name": "STARLINK-34299",
    "noradId": "64383",
    "line1": "1 64383U 25127P   26181.61860674  .00019689  00000+0  72301-3 0  9995",
    "line2": "2 64383  42.9981 262.4119 0000418 294.4464  65.6344 15.27583230 59682"
  },
  {
    "name": "STARLINK-34271",
    "noradId": "64384",
    "line1": "1 64384U 25127Q   26181.67242395  .00015264  00000+0  56290-3 0  9990",
    "line2": "2 64384  43.0032 261.9464 0001043 273.9017  86.1716 15.27588823 59741"
  },
  {
    "name": "STARLINK-34100",
    "noradId": "64385",
    "line1": "1 64385U 25127R   26181.67627718  .00020813  00000+0  76349-3 0  9990",
    "line2": "2 64385  43.0013 261.9785 0001006 270.6869  89.3868 15.27590530 59690"
  },
  {
    "name": "STARLINK-34269",
    "noradId": "64386",
    "line1": "1 64386U 25127S   26181.56463090  .00016588  00000+0  61073-3 0  9992",
    "line2": "2 64386  43.0024 261.9940 0001733 274.7511  85.3143 15.27591723 59734"
  },
  {
    "name": "STARLINK-34351",
    "noradId": "64387",
    "line1": "1 64387U 25127T   26181.69411697  .00019287  00000+0  70821-3 0  9993",
    "line2": "2 64387  42.9991 261.2498 0002311 282.0063  78.0529 15.27595233 59753"
  },
  {
    "name": "STARLINK-34198",
    "noradId": "64388",
    "line1": "1 64388U 25127U   26181.62744531  .00010904  00000+0  40514-3 0  9996",
    "line2": "2 64388  43.0010 261.6084 0002071 259.7875 100.2743 15.27582646 59747"
  },
  {
    "name": "STARLINK-34279",
    "noradId": "64389",
    "line1": "1 64389U 25127V   26181.62503926  .00022654  00000+0  82940-3 0  9992",
    "line2": "2 64389  42.9999 262.4598 0001894 258.3431 101.7208 15.27612461 59736"
  },
  {
    "name": "STARLINK-34292",
    "noradId": "64390",
    "line1": "1 64390U 25127W   26181.66857001  .00012082  00000+0  44783-3 0  9991",
    "line2": "2 64390  43.0002 261.9156 0001022 276.6414  83.4321 15.27582502 59741"
  },
  {
    "name": "STARLINK-34278",
    "noradId": "64391",
    "line1": "1 64391U 25127X   26181.56719655  .00024058  00000+0  88054-3 0  9998",
    "line2": "2 64391  42.9995 262.0133 0002853 248.9049 111.1498 15.27592034 59731"
  },
  {
    "name": "STARLINK-33802",
    "noradId": "64392",
    "line1": "1 64392U 25127Y   26181.54934912  .00067766  00000+0  24447-2 0  9990",
    "line2": "2 64392  43.0001 262.7447 0003903 253.3065 106.7358 15.27640020 59770"
  },
  {
    "name": "STARLINK-34419",
    "noradId": "64412",
    "line1": "1 64412U 25129A   26181.31463030  .00001708  00000+0  15086-3 0  9992",
    "line2": "2 64412  70.0007 150.6313 0002946 268.1528  91.9293 14.98336599 58176"
  },
  {
    "name": "STARLINK-34275",
    "noradId": "64413",
    "line1": "1 64413U 25129B   26181.29391803  .00003892  00000+0  33373-3 0  9993",
    "line2": "2 64413  70.0010 150.5683 0003599 266.9604  93.1143 14.98339137 58153"
  },
  {
    "name": "STARLINK-34225",
    "noradId": "64414",
    "line1": "1 64414U 25129C   26181.85705295  .00003395  00000+0  29212-3 0  9995",
    "line2": "2 64414  70.0005 149.3173 0003431 263.7413  96.3355 14.98338037 58233"
  },
  {
    "name": "STARLINK-34422",
    "noradId": "64415",
    "line1": "1 64415U 25129D   26181.30210328  .00002069  00000+0  18113-3 0  9999",
    "line2": "2 64415  70.0009 150.5986 0003986 257.7655 102.3058 14.98333826 58093"
  }
]