OBJECT_NAME,OBJECT_ID,EPOCH,MEAN_MOTION,ECCENTRICITY,INCLINATION,RA_OF_ASC_NODE,ARG_OF_PERICENTER,MEAN_ANOMALY,EPHEMERIS_TYPE,CLASSIFICATION_TYPE,NORAD_CAT_ID,ELEMENT_SET_NO,REV_AT_EPOCH,BSTAR,MEAN_MOTION_DOT,MEAN_MOTION_DDOT
STARLINK-34483,2025-126Z,2026-06-30T05:44:27.145248,14.98342150,.00027812,70.0010,110.5555,257.4099,102.6750,0,U,64367,999,5754,.5698755E-5,-.25E-6,0
STARLINK-34457,2025-126AA,2026-06-30T19:27:23.712768,14.98343529,.0003024,70.0015,109.3426,265.6639,94.4174,0,U,64368,999,5762,.53728E-3,.6326E-4,0
STARLINK-34444,2025-126AB,2026-06-30T05:08:25.456128,14.98347708,.00026836,70.0011,110.8707,268.4680,91.6172,0,U,64369,999,5753,.71430697E-3,.8444E-4,0
STARLINK-11732 [DTC],2025-127A,2026-06-30T07:23:26.996640,15.70911929,.00027326,43.0015,125.7731,268.8970,91.1585,0,U,64370,999,6121,.15850468E-2,.208767E-2,0
STARLINK-11731 [DTC],2025-127B,2026-06-30T19:58:51.862080,15.70889631,.0001602,43.0008,122.8349,259.4258,100.6429,0,U,64371,999,6129,.19422E-2,.257165E-2,0
STARLINK-11746 [DTC],2025-127C,2026-06-29T23:22:42.926016,15.70850450,.00020643,42.9986,127.5569,205.3972,154.6795,0,U,64372,999,6116,.1258213E-2,.164304E-2,0
STARLINK-11748 [DTC],2025-127D,2026-06-30T20:15:27.959040,15.70955639,.0003765,43.0004,122.9258,283.4747,76.5701,0,U,64373,999,6129,.13874E-2,.182462E-2,0
STARLINK-11739 [DTC],2025-127E,2026-06-30T03:34:27.781824,15.70925477,.00007099,43.0004,126.2804,213.2987,146.7836,0,U,64374,999,6119,.13386099E-2,.175619E-2,0
STARLINK-11738 [DTC],2025-127F,2026-06-30T20:14:09.258144,15.70986759,.0002553,42.9994,122.9177,282.7158,77.3424,0,U,64375,999,6129,.17997E-2,.238705E-2,0
STARLINK-11745 [DTC],2025-127G,2026-06-30T07:15:46.372320,15.70958186,.00030228,43.0014,125.7275,271.6906,88.3615,0,U,64376,999,6121,.18351574E-2,.243272E-2,0
STARLINK-11742 [DTC],2025-127H,2026-06-30T03:04:03.899424,15.70849953,.00008709,42.9994,127.0037,270.2578,89.8190,0,U,64377,999,6118,.1094999E-2,.142547E-2,0
STARLINK-11711 [DTC],2025-127J,2026-06-29T21:43:30.650304,15.70885331,.00012837,42.9987,127.8961,211.0436,149.0356,0,U,64378,999,6126,.14460013E-2,.18975E-2,0
STARLINK-11743 [DTC],2025-127K,2026-06-30T03:19:21.340416,15.70851642,.0002232,43.0017,127.0896,273.6697,86.3915,0,U,64379,999,6118,.61706443E-3,.79533E-3,0
STARLINK-11744 [DTC],2025-127L,2026-06-30T19:43:34.284576,15.71016830,.0003165,43.0001,122.7441,279.4169,80.6341,0,U,64380,999,6129,.20648E-2,.275527E-2,0
STARLINK-11692 [DTC],2025-127M,2026-06-30T07:08:09.731904,15.70876045,.00017475,43.0001,125.6810,257.2248,102.8424,0,U,64381,999,6132,.1428618E-2,.187337E-2,0
STARLINK-11740 [DTC],2025-127N,2026-06-30T20:00:01.999008,15.70826448,.0001625,43.0005,122.2274,253.4227,351.7298,0,U,64382,999,602,.11519E-3,.14349E-3,0
STARLINK-34299,2025-127P,2026-06-30T14:50:47.622336,15.27583230,.0000418,42.9981,262.4119,294.4464,65.6344,0,U,64383,999,5968,.72301E-3,.19689E-3,0
STARLINK-34271,2025-127Q,2026-06-30T16:08:17.429280,15.27588823,.0001043,43.0032,261.9464,273.9017,86.1716,0,U,64384,999,5974,.5629E-3,.15264E-3,0
STARLINK-34100,2025-127R,2026-06-30T16:13:50.348352,15.27590530,.0001006,43.0013,261.9785,270.6869,89.3868,0,U,64385,999,5969,.76349E-3,.20813E-3,0
STARLINK-34269,2025-127S,2026-06-30T13:33:04.109760,15.27591723,.0001733,43.0024,261.9940,274.7511,85.3143,0,U,64386,999,5973,.61073E-3,.16588E-3,0
STARLINK-34351,2025-127T,2026-06-30T16:39:31.706208,15.27595233,.0002311,42.9991,261.2498,282.0063,78.0529,0,U,64387,999,5975,.70821E-3,.19287E-3,0
STARLINK-34198,2025-127U,2026-06-30T15:03:31.274784,15.27582646,.0002071,43.0010,261.6084,259.7875,100.2743,0,U,64388,999,5974,.40514E-3,.10904E-3,0
STARLINK-34279,2025-127V,2026-06-30T15:00:03.392064,15.27612461,.0001894,42.9999,262.4598,258.3431,101.7208,0,U,64389,999,5973,.8294E-3,.22654E-3,0
STARLINK-34292,2025-127W,2026-06-30T16:02:44.448864,15.27582502,.0001022,43.0002,261.9156,276.6414,83.4321,0,U,64390,999,5974,.44783E-3,.12082E-3,0
STARLINK-34278,2025-127X,2026-06-30T13:36:45.781920,15.27592034,.0002853,42.9995,262.0133,248.9049,111.1498,0,U,64391,999,5973,.88054E-3,.24058E-3,0
STARLINK-33802,2025-127Y,2026-06-30T13:11:03.763968,15.27640020,.0003903,43.0001,262.7447,253.3065,106.7358,0,U,64392,999,5977,.24447E-2,.67766E-3,0
STARLINK-34419,2025-129A,2026-06-30T07:33:04.057920,14.98336599,.00029469,70.0007,150.6313,268.1528,91.9293,0,U,64412,999,5817,.15086457E-3,.1708E-4,0
STARLINK-34275,2025-129B,2026-06-30T07:03:14.517792,14.98339137,.00035999,70.0010,150.5683,266.9604,93.1143,0,U,64413,999,5815,.33373132E-3,.3892E-4,0
STARLINK-34225,2025-129C,2026-06-30T20:34:09.374880,14.98338037,.0003431,70.0005,149.3173,263.7413,96.3355,0,U,64414,999,5823,.29212E-3,.3395E-4,0
STARLINK-34422,2025-129D,2026-06-30T07:15:01.723392,14.98333826,.00039862,70.0009,150.5986,257.7655,102.3058,0,U,64415,999,5809,.18113129E-3,.2069E-4,0
